{"type": "FeatureCollection", "features": [ {"type": "Feature", "properties": {"norad_id": 59600, "name": "GSAT0227 (GALILEO 30)", "group": "gnss", "lat": -30.723071424452602, "lon": -48.93485418686114, "alt_km": 23228.645630319217, "timestamp": "2025-12-05T18:53:13.526799+00:00", "meta": {"OBJECT_NAME": "GSAT0227 (GALILEO 30)", "OBJECT_ID": "2024-079C", "EPOCH": "2025-12-03T16:06:35.879040", "MEAN_MOTION": 1.70474617, "ECCENTRICITY": 0.00034037, "INCLINATION": 54.9912, "RA_OF_ASC_NODE": 106.5479, "ARG_OF_PERICENTER": 113.2328, "MEAN_ANOMALY": 246.7577, "EPHEMERIS_TYPE": 0, "CLASSIFICATION_TYPE": "U", "NORAD_CAT_ID": 59600, "ELEMENT_SET_NO": 999, "REV_AT_EPOCH": 1003, "BSTAR": 0, "MEAN_MOTION_DOT": 1.8e-07, "MEAN_MOTION_DDOT": 0}, "tle": {"line1": "1 59600U 24079C   25337.67124860  .00000018  00000+0  00000+0 0  9993", "line2": "2 59600  54.9912 106.5479 0003403 113.2328 246.7577  1.70474617 10033"}}, "geometry": {"type": "Point", "coordinates": [-48.93485418686114, -30.723071424452602]}}, {"type": "Feature", "properties": {"norad_id": 61182, "name": "GSAT0232 (GALILEO 32)", "group": "gnss", "lat": 40.97067594541502, "lon": -96.34057261455126, "alt_km": 23223.488734087532, "timestamp": "2025-12-05T18:53:13.526810+00:00", "meta": {"OBJECT_NAME": "GSAT0232 (GALILEO 32)", "OBJECT_ID": "2024-167A", "EPOCH": "2025-12-04T05:35:38.594112", "MEAN_MOTION": 1.70473104, "ECCENTRICITY": 0.0002198, "INCLINATION": 55.2442, "RA_OF_ASC_NODE": 226.6646, "ARG_OF_PERICENTER": 213.7296, "MEAN_ANOMALY": 325.6534, "EPHEMERIS_TYPE": 0, "CLASSIFICATION_TYPE": "U", "NORAD_CAT_ID": 61182, "ELEMENT_SET_NO": 999, "REV_AT_EPOCH": 755, "BSTAR": 0, "MEAN_MOTION_DOT": 4.1e-07, "MEAN_MOTION_DDOT": 0}, "tle": {"line1": "1 61182U 24167A   25338.23308558  .00000041  00000+0  00000+0 0  9996", "line2": "2 61182  55.2442 226.6646 0002198 213.7296 325.6534  1.70473104  7556"}}, "geometry": {"type": "Point", "coordinates": [-96.34057261455126, 40.97067594541502]}}, {"type": "Feature", "properties": {"norad_id": 61183, "name": "GSAT0226 (GALILEO 31)", "group": "gnss", "lat": 11.75905463141962, "lon": 38.33408330848319, "alt_km": 23219.19394002955, "timestamp": "2025-12-05T18:53:13.526821+00:00", "meta": {"OBJECT_NAME": "GSAT0226 (GALILEO 31)", "OBJECT_ID": "2024-167B", "EPOCH": "2025-11-26T08:32:06.516672", "MEAN_MOTION": 1.70473481, "ECCENTRICITY": 6.079e-05, "INCLINATION": 55.246, "RA_OF_ASC_NODE": 226.8867, "ARG_OF_PERICENTER": 154.246, "MEAN_ANOMALY": 343.2327, "EPHEMERIS_TYPE": 0, "CLASSIFICATION_TYPE": "U", "NORAD_CAT_ID": 61183, "ELEMENT_SET_NO": 999, "REV_AT_EPOCH": 739, "BSTAR": 0, "MEAN_MOTION_DOT": 3e-07, "MEAN_MOTION_DDOT": 0}, "tle": {"line1": "1 61183U 24167B   25330.35563098  .00000030  00000+0  00000+0 0  9992", "line2": "2 61183  55.2460 226.8867 0000607 154.2460 343.2327  1.70473481  7395"}}, "geometry": {"type": "Point", "coordinates": [38.33408330848319, 11.75905463141962]}}, {"type": "Feature", "properties": {"norad_id": 61186, "name": "BEIDOU-3 M25 (C47)", "group": "gnss", "lat": 48.45584147550045, "lon": 75.74409214712013, "alt_km": 21537.74976645669, "timestamp": "2025-12-05T18:53:13.526832+00:00", "meta": {"OBJECT_NAME": "BEIDOU-3 M25 (C47)", "OBJECT_ID": "2024-168B", "EPOCH": "2025-12-05T05:13:31.135872", "MEAN_MOTION": 1.86229714, "ECCENTRICITY": 0.00054853, "INCLINATION": 54.6489, "RA_OF_ASC_NODE": 308.9806, "ARG_OF_PERICENTER": 294.5401, "MEAN_ANOMALY": 157.173, "EPHEMERIS_TYPE": 0, "CLASSIFICATION_TYPE": "U", "NORAD_CAT_ID": 61186, "ELEMENT_SET_NO": 999, "REV_AT_EPOCH": 817, "BSTAR": 0, "MEAN_MOTION_DOT": -7e-07, "MEAN_MOTION_DDOT": 0}, "tle": {"line1": "1 61186U 24168B   25339.21772148 -.00000070  00000+0  00000+0 0  9993", "line2": "2 61186  54.6489 308.9806 0005485 294.5401 157.1730  1.86229714  8171"}}, "geometry": {"type": "Point", "coordinates": [75.74409214712013, 48.45584147550045]}}, {"type": "Feature", "properties": {"norad_id": 61187, "name": "BEIDOU-3 M27 (C49)", "group": "gnss", "lat": -49.275981886398675, "lon": -175.5626267391069, "alt_km": 21532.75601935692, "timestamp": "2025-12-05T18:53:13.526848+00:00", "meta": {"OBJECT_NAME": "BEIDOU-3 M27 (C49)", "OBJECT_ID": "2024-168C", "EPOCH": "2025-12-05T03:27:10.204704", "MEAN_MOTION": 1.86229855, "ECCENTRICITY": 0.00022725, "INCLINATION": 54.6444, "RA_OF_ASC_NODE": 308.9668, "ARG_OF_PERICENTER": 330.3583, "MEAN_ANOMALY": 206.7783, "EPHEMERIS_TYPE": 0, "CLASSIFICATION_TYPE": "U", "NORAD_CAT_ID": 61187, "ELEMENT_SET_NO": 999, "REV_AT_EPOCH": 564, "BSTAR": 0, "MEAN_MOTION_DOT": -7e-07, "MEAN_MOTION_DDOT": 0}, "tle": {"line1": "1 61187U 24168C   25339.14386811 -.00000070  00000+0  00000+0 0  9994", "line2": "2 61187  54.6444 308.9668 0002272 330.3583 206.7783  1.86229855  5644"}}, "geometry": {"type": "Point", "coordinates": [-175.5626267391069, -49.275981886398675]}}, {"type": "Feature", "properties": {"norad_id": 62339, "name": "GPS BIII-7  (PRN 01)", "group": "gnss", "lat": -53.65414797757678, "lon": -90.71090807980791, "alt_km": 20173.68879806072, "timestamp": "2025-12-05T18:53:13.526859+00:00", "meta": {"OBJECT_NAME": "GPS BIII-7  (PRN 01)", "OBJECT_ID": "2024-242A", "EPOCH": "2025-12-04T03:38:20.685120", "MEAN_MOTION": 2.00567235, "ECCENTRICITY": 0.0011725, "INCLINATION": 54.9261, "RA_OF_ASC_NODE": 342.0885, "ARG_OF_PERICENTER": 343.4986, "MEAN_ANOMALY": 195.9397, "EPHEMERIS_TYPE": 0, "CLASSIFICATION_TYPE": "U", "NORAD_CAT_ID": 62339, "ELEMENT_SET_NO": 999, "REV_AT_EPOCH": 734, "BSTAR": 0, "MEAN_MOTION_DOT": -7.2e-07, "MEAN_MOTION_DDOT": 0}, "tle": {"line1": "1 62339U 24242A   25338.15162830 -.00000072  00000+0  00000+0 0  9992", "line2": "2 62339  54.9261 342.0885 0011725 343.4986 195.9397  2.00567235  7342"}}, "geometry": {"type": "Point", "coordinates": [-90.71090807980791, -53.65414797757678]}}, {"type": "Feature", "properties": {"norad_id": 62850, "name": "NVS-02 (IRNSS-1K)", "group": "gnss", "lat": -0.73818786801268, "lon": 152.0875540648278, "alt_km": 31160.252985698444, "timestamp": "2025-12-05T18:53:13.526871+00:00", "meta": {"OBJECT_NAME": "NVS-02 (IRNSS-1K)", "OBJECT_ID": "2025-020A", "EPOCH": "2025-12-05T04:41:35.643552", "MEAN_MOTION": 2.1758661, "ECCENTRICITY": 0.73477968, "INCLINATION": 21.0036, "RA_OF_ASC_NODE": 330.3881, "ARG_OF_PERICENTER": 21.3409, "MEAN_ANOMALY": 357.8218, "EPHEMERIS_TYPE": 0, "CLASSIFICATION_TYPE": "U", "NORAD_CAT_ID": 62850, "ELEMENT_SET_NO": 999, "REV_AT_EPOCH": 675, "BSTAR": 0.00043450225, "MEAN_MOTION_DOT": 6.73e-06, "MEAN_MOTION_DDOT": 0}, "tle": {"line1": "1 62850U 25020A   25339.19555143  .00000673  00000+0  43450-3 0  9999", "line2": "2 62850  21.0036 330.3881 7347796  21.3409 357.8218  2.17586610  6751"}}, "geometry": {"type": "Point", "coordinates": [152.0875540648278, -0.73818786801268]}}, {"type": "Feature", "properties": {"norad_id": 63130, "name": "COSMOS 2584 (704K)", "group": "gnss", "lat": -13.275678278487995, "lon": 73.06870370049973, "alt_km": 19145.13552747485, "timestamp": "2025-12-05T18:53:13.526882+00:00", "meta": {"OBJECT_NAME": "COSMOS 2584 (704K)", "OBJECT_ID": "2025-042A", "EPOCH": "2025-11-26T10:06:10.904256", "MEAN_MOTION": 2.13103062, "ECCENTRICITY": 0.00075218, "INCLINATION": 64.9668, "RA_OF_ASC_NODE": 79.7019, "ARG_OF_PERICENTER": 212.3772, "MEAN_ANOMALY": 147.585, "EPHEMERIS_TYPE": 0, "CLASSIFICATION_TYPE": "U", "NORAD_CAT_ID": 63130, "ELEMENT_SET_NO": 999, "REV_AT_EPOCH": 572, "BSTAR": 0, "MEAN_MOTION_DOT": 1.8e-07, "MEAN_MOTION_DDOT": 0}, "tle": {"line1": "1 63130U 25042A   25330.42095954  .00000018  00000+0  00000+0 0  9994", "line2": "2 63130  64.9668  79.7019 0007521 212.3772 147.5850  2.13103062  5728"}}, "geometry": {"type": "Point", "coordinates": [73.06870370049973, -13.275678278487995]}}, {"type": "Feature", "properties": {"norad_id": 64202, "name": "GPS BIII-8  (PRN 21)", "group": "gnss", "lat": 50.43955873580433, "lon": 161.3659162981047, "alt_km": 20189.351866520265, "timestamp": "2025-12-05T18:53:13.526893+00:00", "meta": {"OBJECT_NAME": "GPS BIII-8  (PRN 21)", "OBJECT_ID": "2025-116A", "EPOCH": "2025-12-03T06:10:25.375296", "MEAN_MOTION": 2.00558491, "ECCENTRICITY": 0.0004994, "INCLINATION": 55.0986, "RA_OF_ASC_NODE": 39.0246, "ARG_OF_PERICENTER": 306.9577, "MEAN_ANOMALY": 136.4728, "EPHEMERIS_TYPE": 0, "CLASSIFICATION_TYPE": "U", "NORAD_CAT_ID": 64202, "ELEMENT_SET_NO": 999, "REV_AT_EPOCH": 394, "BSTAR": 0, "MEAN_MOTION_DOT": -6.8e-07, "MEAN_MOTION_DDOT": 0}, "tle": {"line1": "1 64202U 25116A   25337.25723814 -.00000068  00000+0  00000+0 0  9994", "line2": "2 64202  55.0986  39.0246 0004994 306.9577 136.4728  2.00558491  3947"}}, "geometry": {"type": "Point", "coordinates": [161.3659162981047, 50.43955873580433]}}, {"type": "Feature", "properties": {"norad_id": 65590, "name": "COSMOS 2596 (708K)", "group": "gnss", "lat": 61.37371116892936, "lon": 81.85122551511354, "alt_km": 19156.82326853129, "timestamp": "2025-12-05T18:53:13.526904+00:00", "meta": {"OBJECT_NAME": "COSMOS 2596 (708K)", "OBJECT_ID": "2025-206B", "EPOCH": "2025-12-05T10:56:18.216960", "MEAN_MOTION": 2.13100168, "ECCENTRICITY": 0.0014024, "INCLINATION": 64.7483, "RA_OF_ASC_NODE": 321.7274, "ARG_OF_PERICENTER": 304.902, "MEAN_ANOMALY": 264.8431, "EPHEMERIS_TYPE": 0, "CLASSIFICATION_TYPE": "U", "NORAD_CAT_ID": 65590, "ELEMENT_SET_NO": 999, "REV_AT_EPOCH": 177, "BSTAR": 0, "MEAN_MOTION_DOT": -5e-07, "MEAN_MOTION_DDOT": 0}, "tle": {"line1": "1 65590U 25206B   25339.45576640 -.00000050  00000+0  00000+0 0  9993", "line2": "2 65590  64.7483 321.7274 0014024 304.9020 264.8431  2.13100168  1779"}}, "geometry": {"type": "Point", "coordinates": [81.85122551511354, 61.37371116892936]}}]}